{"type": "FeatureCollection", "features": [ {"type": "Feature", "properties": {"norad_id": 34304, "name": "COSMOS 2251 DEB", "group": "cosmos-2251-debris", "lat": -8.78808610112651, "lon": 94.86323713632042, "alt_km": 811.9411443415283, "timestamp": "2025-12-26T09:30:54.033877+00:00", "meta": {"OBJECT_NAME": "COSMOS 2251 DEB", "OBJECT_ID": "1993-036NA", "EPOCH": "2025-12-25T08:50:34.993248", "MEAN_MOTION": 14.37981033, "ECCENTRICITY": 0.0128954, "INCLINATION": 74.0138, "RA_OF_ASC_NODE": 99.299, "ARG_OF_PERICENTER": 234.5497, "MEAN_ANOMALY": 195.566, "EPHEMERIS_TYPE": 0, "CLASSIFICATION_TYPE": "U", "NORAD_CAT_ID": 34304, "ELEMENT_SET_NO": 999, "REV_AT_EPOCH": 87478, "BSTAR": 0.0017049, "MEAN_MOTION_DOT": 5.652e-05, "MEAN_MOTION_DDOT": 0}, "tle": {"line1": "1 34304U 93036NA  25359.36846057  .00005652  00000+0  17049-2 0  9998", "line2": "2 34304  74.0138  99.2990 0128954 234.5497 195.5660 14.37981033874785"}}, "geometry": {"type": "Point", "coordinates": [94.86323713632042, -8.78808610112651]}}, {"type": "Feature", "properties": {"norad_id": 34307, "name": "COSMOS 2251 DEB", "group": "cosmos-2251-debris", "lat": 42.061576472503646, "lon": -53.84753401339102, "alt_km": 966.0232101998154, "timestamp": "2025-12-26T09:30:54.033887+00:00", "meta": {"OBJECT_NAME": "COSMOS 2251 DEB", "OBJECT_ID": "1993-036ND", "EPOCH": "2025-12-25T21:10:12.847296", "MEAN_MOTION": 13.54341758, "ECCENTRICITY": 0.0391761, "INCLINATION": 74.0541, "RA_OF_ASC_NODE": 292.0274, "ARG_OF_PERICENTER": 120.067, "MEAN_ANOMALY": 301.5561, "EPHEMERIS_TYPE": 0, "CLASSIFICATION_TYPE": "U", "NORAD_CAT_ID": 34307, "ELEMENT_SET_NO": 999, "REV_AT_EPOCH": 83040, "BSTAR": 0.00076006, "MEAN_MOTION_DOT": 8.27e-06, "MEAN_MOTION_DDOT": 0}, "tle": {"line1": "1 34307U 93036ND  25359.88209314  .00000827  00000+0  76006-3 0  9995", "line2": "2 34307  74.0541 292.0274 0391761 120.0670 301.5561 13.54341758830406"}}, "geometry": {"type": "Point", "coordinates": [-53.84753401339102, 42.061576472503646]}}, {"type": "Feature", "properties": {"norad_id": 34313, "name": "COSMOS 2251 DEB", "group": "cosmos-2251-debris", "lat": 61.71785652021437, "lon": -50.95871495306124, "alt_km": 486.4517301217993, "timestamp": "2025-12-26T09:30:54.033898+00:00", "meta": {"OBJECT_NAME": "COSMOS 2251 DEB", "OBJECT_ID": "1993-036NK", "EPOCH": "2025-12-26T02:54:45.866016", "MEAN_MOTION": 15.21500388, "ECCENTRICITY": 0.0012218, "INCLINATION": 73.971, "RA_OF_ASC_NODE": 277.3226, "ARG_OF_PERICENTER": 60.9803, "MEAN_ANOMALY": 299.2617, "EPHEMERIS_TYPE": 0, "CLASSIFICATION_TYPE": "U", "NORAD_CAT_ID": 34313, "ELEMENT_SET_NO": 999, "REV_AT_EPOCH": 89268, "BSTAR": 0.0041004, "MEAN_MOTION_DOT": 0.00093633, "MEAN_MOTION_DDOT": 0}, "tle": {"line1": "1 34313U 93036NK  25360.12136419  .00093633  00000+0  41004-2 0  9992", "line2": "2 34313  73.9710 277.3226 0012218  60.9803 299.2617 15.21500388892684"}}, "geometry": {"type": "Point", "coordinates": [-50.95871495306124, 61.71785652021437]}}, {"type": "Feature", "properties": {"norad_id": 34314, "name": "COSMOS 2251 DEB", "group": "cosmos-2251-debris", "lat": 70.36990200045126, "lon": -22.46211592087154, "alt_km": 780.3618895891823, "timestamp": "2025-12-26T09:30:54.033909+00:00", "meta": {"OBJECT_NAME": "COSMOS 2251 DEB", "OBJECT_ID": "1993-036NL", "EPOCH": "2025-12-25T19:53:15.069696", "MEAN_MOTION": 14.17456813, "ECCENTRICITY": 0.01035519, "INCLINATION": 74.0062, "RA_OF_ASC_NODE": 285.0254, "ARG_OF_PERICENTER": 27.6162, "MEAN_ANOMALY": 33.6381, "EPHEMERIS_TYPE": 0, "CLASSIFICATION_TYPE": "U", "NORAD_CAT_ID": 34314, "ELEMENT_SET_NO": 999, "REV_AT_EPOCH": 86843, "BSTAR": 0.00061005965, "MEAN_MOTION_DOT": 1.279e-05, "MEAN_MOTION_DDOT": 0}, "tle": {"line1": "1 34314U 93036NL  25359.82864664  .00001279  00000+0  61006-3 0  9998", "line2": "2 34314  74.0062 285.0254 0103551  27.6162  33.6381 14.17456813868434"}}, "geometry": {"type": "Point", "coordinates": [-22.46211592087154, 70.36990200045126]}}, {"type": "Feature", "properties": {"norad_id": 34316, "name": "COSMOS 2251 DEB", "group": "cosmos-2251-debris", "lat": -26.133832809220813, "lon": -58.53361772917492, "alt_km": 592.7838224705611, "timestamp": "2025-12-26T09:30:54.033919+00:00", "meta": {"OBJECT_NAME": "COSMOS 2251 DEB", "OBJECT_ID": "1993-036NN", "EPOCH": "2025-12-25T14:19:44.175648", "MEAN_MOTION": 14.92240854, "ECCENTRICITY": 0.000919, "INCLINATION": 74.0656, "RA_OF_ASC_NODE": 311.1258, "ARG_OF_PERICENTER": 32.3565, "MEAN_ANOMALY": 327.818, "EPHEMERIS_TYPE": 0, "CLASSIFICATION_TYPE": "U", "NORAD_CAT_ID": 34316, "ELEMENT_SET_NO": 999, "REV_AT_EPOCH": 89401, "BSTAR": 0.0019689, "MEAN_MOTION_DOT": 0.00020121, "MEAN_MOTION_DDOT": 0}, "tle": {"line1": "1 34316U 93036NN  25359.59703907  .00020121  00000+0  19689-2 0  9992", "line2": "2 34316  74.0656 311.1258 0009190  32.3565 327.8180 14.92240854894011"}}, "geometry": {"type": "Point", "coordinates": [-58.53361772917492, -26.133832809220813]}}, {"type": "Feature", "properties": {"norad_id": 34317, "name": "COSMOS 2251 DEB", "group": "cosmos-2251-debris", "lat": -35.27969958965485, "lon": 1.5032048374759746, "alt_km": 820.3003712394939, "timestamp": "2025-12-26T09:30:54.033929+00:00", "meta": {"OBJECT_NAME": "COSMOS 2251 DEB", "OBJECT_ID": "1993-036NP", "EPOCH": "2025-12-26T02:58:18.511104", "MEAN_MOTION": 13.6513956, "ECCENTRICITY": 0.0337012, "INCLINATION": 73.9242, "RA_OF_ASC_NODE": 13.7235, "ARG_OF_PERICENTER": 0.4101, "MEAN_ANOMALY": 65.6445, "EPHEMERIS_TYPE": 0, "CLASSIFICATION_TYPE": "U", "NORAD_CAT_ID": 34317, "ELEMENT_SET_NO": 999, "REV_AT_EPOCH": 83802, "BSTAR": 0.00066269, "MEAN_MOTION_DOT": 7.69e-06, "MEAN_MOTION_DDOT": 0}, "tle": {"line1": "1 34317U 93036NP  25360.12382536  .00000769  00000+0  66269-3 0  9998", "line2": "2 34317  73.9242  13.7235 0337012   0.4101  65.6445 13.65139560838020"}}, "geometry": {"type": "Point", "coordinates": [1.5032048374759746, -35.27969958965485]}}, {"type": "Feature", "properties": {"norad_id": 34321, "name": "COSMOS 2251 DEB", "group": "cosmos-2251-debris", "lat": -39.6286085640076, "lon": -35.57767418139384, "alt_km": 722.422285923235, "timestamp": "2025-12-26T09:30:54.033940+00:00", "meta": {"OBJECT_NAME": "COSMOS 2251 DEB", "OBJECT_ID": "1993-036NT", "EPOCH": "2025-12-25T19:49:55.565184", "MEAN_MOTION": 14.50112007, "ECCENTRICITY": 0.00160413, "INCLINATION": 74.0288, "RA_OF_ASC_NODE": 131.774, "ARG_OF_PERICENTER": 260.6384, "MEAN_ANOMALY": 225.892, "EPHEMERIS_TYPE": 0, "CLASSIFICATION_TYPE": "U", "NORAD_CAT_ID": 34321, "ELEMENT_SET_NO": 999, "REV_AT_EPOCH": 88676, "BSTAR": 0.00065748716, "MEAN_MOTION_DOT": 2.529e-05, "MEAN_MOTION_DDOT": 0}, "tle": {"line1": "1 34321U 93036NT  25359.82633756  .00002529  00000+0  65749-3 0  9999", "line2": "2 34321  74.0288 131.7740 0016041 260.6384 225.8920 14.50112007886762"}}, "geometry": {"type": "Point", "coordinates": [-35.57767418139384, -39.6286085640076]}}, {"type": "Feature", "properties": {"norad_id": 34323, "name": "COSMOS 2251 DEB", "group": "cosmos-2251-debris", "lat": 2.4144629665308317, "lon": 97.00077262096437, "alt_km": 675.9213797242819, "timestamp": "2025-12-26T09:30:54.033950+00:00", "meta": {"OBJECT_NAME": "COSMOS 2251 DEB", "OBJECT_ID": "1993-036NV", "EPOCH": "2025-12-25T17:46:30.349920", "MEAN_MOTION": 14.7482066, "ECCENTRICITY": 0.00571799, "INCLINATION": 73.9528, "RA_OF_ASC_NODE": 97.5927, "ARG_OF_PERICENTER": 138.3754, "MEAN_ANOMALY": 344.1097, "EPHEMERIS_TYPE": 0, "CLASSIFICATION_TYPE": "U", "NORAD_CAT_ID": 34323, "ELEMENT_SET_NO": 999, "REV_AT_EPOCH": 88631, "BSTAR": 0.0022699911, "MEAN_MOTION_DOT": 0.00015618, "MEAN_MOTION_DDOT": 0}, "tle": {"line1": "1 34323U 93036NV  25359.74062905  .00015618  00000+0  22700-2 0  9996", "line2": "2 34323  73.9528  97.5927 0057179 138.3754 344.1097 14.74820660886312"}}, "geometry": {"type": "Point", "coordinates": [97.00077262096437, 2.4144629665308317]}}, {"type": "Feature", "properties": {"norad_id": 34325, "name": "COSMOS 2251 DEB", "group": "cosmos-2251-debris", "lat": 12.80225999533619, "lon": 172.51335123885747, "alt_km": 1015.4950461692943, "timestamp": "2025-12-26T09:30:54.033960+00:00", "meta": {"OBJECT_NAME": "COSMOS 2251 DEB", "OBJECT_ID": "1993-036NX", "EPOCH": "2025-12-25T20:22:01.149888", "MEAN_MOTION": 14.04557216, "ECCENTRICITY": 0.01913228, "INCLINATION": 73.8708, "RA_OF_ASC_NODE": 169.7082, "ARG_OF_PERICENTER": 184.6073, "MEAN_ANOMALY": 300.2116, "EPHEMERIS_TYPE": 0, "CLASSIFICATION_TYPE": "U", "NORAD_CAT_ID": 34325, "ELEMENT_SET_NO": 999, "REV_AT_EPOCH": 85699, "BSTAR": 0.0020443656, "MEAN_MOTION_DOT": 3.821e-05, "MEAN_MOTION_DDOT": 0}, "tle": {"line1": "1 34325U 93036NX  25359.84862442  .00003821  00000+0  20444-2 0  9999", "line2": "2 34325  73.8708 169.7082 0191322 184.6073 300.2116 14.04557216856997"}}, "geometry": {"type": "Point", "coordinates": [172.51335123885747, 12.80225999533619]}}, {"type": "Feature", "properties": {"norad_id": 34327, "name": "COSMOS 2251 DEB", "group": "cosmos-2251-debris", "lat": 33.57888566122427, "lon": 155.50269177570448, "alt_km": 591.6835108571995, "timestamp": "2025-12-26T09:30:54.033971+00:00", "meta": {"OBJECT_NAME": "COSMOS 2251 DEB", "OBJECT_ID": "1993-036NZ", "EPOCH": "2025-12-25T21:00:08.868960", "MEAN_MOTION": 14.89478709, "ECCENTRICITY": 0.00337459, "INCLINATION": 73.9942, "RA_OF_ASC_NODE": 145.5616, "ARG_OF_PERICENTER": 319.4868, "MEAN_ANOMALY": 160.9451, "EPHEMERIS_TYPE": 0, "CLASSIFICATION_TYPE": "U", "NORAD_CAT_ID": 34327, "ELEMENT_SET_NO": 999, "REV_AT_EPOCH": 89703, "BSTAR": 0.0013743907, "MEAN_MOTION_DOT": 0.00013213, "MEAN_MOTION_DDOT": 0}, "tle": {"line1": "1 34327U 93036NZ  25359.87510265  .00013213  00000+0  13744-2 0  9998", "line2": "2 34327  73.9942 145.5616 0033745 319.4868 160.9451 14.89478709897034"}}, "geometry": {"type": "Point", "coordinates": [155.50269177570448, 33.57888566122427]}}]}